ACS3                    
1 59588U 24077B   24246.86568446  .00031802  00000+0  37236-1 0  9995
2 59588  97.4062 296.9840 0026051 242.1340 117.7172 13.67994394 18025
